<?xml version="1.0" encoding="UTF-8"?>
<kml xmlns="http://www.opengis.net/kml/2.2">
  <Document>
    <name>PDL-145T Sites - Inongo, Kutu, Mushie, Yumbi</name>
    <description>Filtered sites from Programme de Développement Local des 145 Territoires for target territories</description>
    
    <!-- Styles for different entity types -->
    <Style id="admin">
      <IconStyle>
        <color>ff0000ff</color>
        <Icon>
          <href>http://maps.google.com/mapfiles/kml/pushpin/red-pushpin.png</href>
        </Icon>
      </IconStyle>
    </Style>
    
    <Style id="health">
      <IconStyle>
        <color>ff00ff00</color>
        <Icon>
          <href>http://maps.google.com/mapfiles/kml/pushpin/grn-pushpin.png</href>
        </Icon>
      </IconStyle>
    </Style>
    
    <Style id="school">
      <IconStyle>
        <color>ffff0000</color>
        <Icon>
          <href>http://maps.google.com/mapfiles/kml/pushpin/blue-pushpin.png</href>
        </Icon>
      </IconStyle>
    </Style>

    <Folder>
      <name>INONGO</name>
      <description>Sites in INONGO territory</description>
      
      <Placemark>
        <name>CENTRE DE SANTE NSELENGE</name>
        <description>
          <![CDATA[
            <b>Type:</b> CENTRE DE SANTE<br/>
            <b>Territory:</b> INONGO<br/>
            <b>Province:</b> MAI NDOMBE<br/>
            <b>Coordinates:</b> -1.95726, 18.17509
          ]]>
        </description>
        <styleUrl>#health</styleUrl>
        <Point>
          <coordinates>18.17509,-1.95726,0</coordinates>
        </Point>
      </Placemark>
      <Placemark>
        <name>CENTRE DE SANTE DE REFERENCE BOKO</name>
        <description>
          <![CDATA[
            <b>Type:</b> CENTRE DE SANTE<br/>
            <b>Territory:</b> INONGO<br/>
            <b>Province:</b> MAI NDOMBE<br/>
            <b>Coordinates:</b> -1.9642749526423429, 18.171145047357655
          ]]>
        </description>
        <styleUrl>#health</styleUrl>
        <Point>
          <coordinates>18.171145047357655,-1.9642749526423429,0</coordinates>
        </Point>
      </Placemark>
      <Placemark>
        <name>CENTRE DE SANTE DE REFERENCE MBAL</name>
        <description>
          <![CDATA[
            <b>Type:</b> CENTRE DE SANTE<br/>
            <b>Territory:</b> INONGO<br/>
            <b>Province:</b> MAI NDOMBE<br/>
            <b>Coordinates:</b> -1.9614996953000727, 18.173920304699926
          ]]>
        </description>
        <styleUrl>#health</styleUrl>
        <Point>
          <coordinates>18.173920304699926,-1.9614996953000727,0</coordinates>
        </Point>
      </Placemark>
      <Placemark>
        <name>CENTRE DE SANTE MPANZA</name>
        <description>
          <![CDATA[
            <b>Type:</b> CENTRE DE SANTE<br/>
            <b>Territory:</b> INONGO<br/>
            <b>Province:</b> MAI NDOMBE<br/>
            <b>Coordinates:</b> -1.9618206004315826, 18.173599399568417
          ]]>
        </description>
        <styleUrl>#health</styleUrl>
        <Point>
          <coordinates>18.173599399568417,-1.9618206004315826,0</coordinates>
        </Point>
      </Placemark>
      <Placemark>
        <name>CENTRE DE SANTE NKOLOBEKE</name>
        <description>
          <![CDATA[
            <b>Type:</b> CENTRE DE SANTE<br/>
            <b>Territory:</b> INONGO<br/>
            <b>Province:</b> MAI NDOMBE<br/>
            <b>Coordinates:</b> -1.955783253122489, 18.17963674687751
          ]]>
        </description>
        <styleUrl>#health</styleUrl>
        <Point>
          <coordinates>18.17963674687751,-1.955783253122489,0</coordinates>
        </Point>
      </Placemark>
      <Placemark>
        <name>CENTRE DE SANTE NTANDE-MPENGE</name>
        <description>
          <![CDATA[
            <b>Type:</b> CENTRE DE SANTE<br/>
            <b>Territory:</b> INONGO<br/>
            <b>Province:</b> MAI NDOMBE<br/>
            <b>Coordinates:</b> -1.9530241857533623, 18.182395814246636
          ]]>
        </description>
        <styleUrl>#health</styleUrl>
        <Point>
          <coordinates>18.182395814246636,-1.9530241857533623,0</coordinates>
        </Point>
      </Placemark>
      <Placemark>
        <name>MATESO ECOLE PRIMAIRE</name>
        <description>
          <![CDATA[
            <b>Type:</b> ECOLE PRIMAIRE<br/>
            <b>Territory:</b> INONGO<br/>
            <b>Province:</b> MAI NDOMBE<br/>
            <b>Coordinates:</b> -1.95233, 18.18083
          ]]>
        </description>
        <styleUrl>#school</styleUrl>
        <Point>
          <coordinates>18.18083,-1.95233,0</coordinates>
        </Point>
      </Placemark>
      <Placemark>
        <name>ISANGA ECOLE PRIMAIRE</name>
        <description>
          <![CDATA[
            <b>Type:</b> ECOLE PRIMAIRE<br/>
            <b>Territory:</b> INONGO<br/>
            <b>Province:</b> MAI NDOMBE<br/>
            <b>Coordinates:</b> -1.95233, 18.18083
          ]]>
        </description>
        <styleUrl>#school</styleUrl>
        <Point>
          <coordinates>18.18083,-1.95233,0</coordinates>
        </Point>
      </Placemark>
      <Placemark>
        <name>BONGO NSAMBELO ECOLE PRIMAIRE</name>
        <description>
          <![CDATA[
            <b>Type:</b> ECOLE PRIMAIRE<br/>
            <b>Territory:</b> INONGO<br/>
            <b>Province:</b> MAI NDOMBE<br/>
            <b>Coordinates:</b> -1.95233, 18.18083
          ]]>
        </description>
        <styleUrl>#school</styleUrl>
        <Point>
          <coordinates>18.18083,-1.95233,0</coordinates>
        </Point>
      </Placemark>
      <Placemark>
        <name>IYANZA ECOLE PRIMAIRE</name>
        <description>
          <![CDATA[
            <b>Type:</b> ECOLE PRIMAIRE<br/>
            <b>Territory:</b> INONGO<br/>
            <b>Province:</b> MAI NDOMBE<br/>
            <b>Coordinates:</b> -1.95233, 18.18083
          ]]>
        </description>
        <styleUrl>#school</styleUrl>
        <Point>
          <coordinates>18.18083,-1.95233,0</coordinates>
        </Point>
      </Placemark>
      <Placemark>
        <name>MPENGE ECOLE PRIMAIRE</name>
        <description>
          <![CDATA[
            <b>Type:</b> ECOLE PRIMAIRE<br/>
            <b>Territory:</b> INONGO<br/>
            <b>Province:</b> MAI NDOMBE<br/>
            <b>Coordinates:</b> -1.95233, 18.18083
          ]]>
        </description>
        <styleUrl>#school</styleUrl>
        <Point>
          <coordinates>18.18083,-1.95233,0</coordinates>
        </Point>
      </Placemark>
      <Placemark>
        <name>MPOLE ECOLE PRIMAIRE</name>
        <description>
          <![CDATA[
            <b>Type:</b> ECOLE PRIMAIRE<br/>
            <b>Territory:</b> INONGO<br/>
            <b>Province:</b> MAI NDOMBE<br/>
            <b>Coordinates:</b> -2.07866, 17.1197
          ]]>
        </description>
        <styleUrl>#school</styleUrl>
        <Point>
          <coordinates>17.1197,-2.07866,0</coordinates>
        </Point>
      </Placemark>
      <Placemark>
        <name>MPUNZO BEKE ECOLE PRIMAIRE</name>
        <description>
          <![CDATA[
            <b>Type:</b> ECOLE PRIMAIRE<br/>
            <b>Territory:</b> INONGO<br/>
            <b>Province:</b> MAI NDOMBE<br/>
            <b>Coordinates:</b> -1.7163, 18.42752
          ]]>
        </description>
        <styleUrl>#school</styleUrl>
        <Point>
          <coordinates>18.42752,-1.7163,0</coordinates>
        </Point>
      </Placemark>
      <Placemark>
        <name>NSELENGE 2 ECOLE PRIMAIRE</name>
        <description>
          <![CDATA[
            <b>Type:</b> ECOLE PRIMAIRE<br/>
            <b>Territory:</b> INONGO<br/>
            <b>Province:</b> MAI NDOMBE<br/>
            <b>Coordinates:</b> -1.95784, 18.17758
          ]]>
        </description>
        <styleUrl>#school</styleUrl>
        <Point>
          <coordinates>18.17758,-1.95784,0</coordinates>
        </Point>
      </Placemark>
      <Placemark>
        <name>INONGO</name>
        <description>
          <![CDATA[
            <b>Type:</b> BATIMENT ADMINISTRATIF<br/>
            <b>Territory:</b> INONGO<br/>
            <b>Province:</b> MAI NDOMBE<br/>
            <b>Coordinates:</b> -1.95784, 18.17758
          ]]>
        </description>
        <styleUrl>#admin</styleUrl>
        <Point>
          <coordinates>18.17758,-1.95784,0</coordinates>
        </Point>
      </Placemark>
    </Folder>

    <Folder>
      <name>KUTU</name>
      <description>Sites in KUTU territory</description>
      
      <Placemark>
        <name>CENTRE DE SANTE BOKORO</name>
        <description>
          <![CDATA[
            <b>Type:</b> CENTRE DE SANTE<br/>
            <b>Territory:</b> KUTU<br/>
            <b>Province:</b> MAI NDOMBE<br/>
            <b>Coordinates:</b> -2.7281206518332897, 18.145769348166713
          ]]>
        </description>
        <styleUrl>#health</styleUrl>
        <Point>
          <coordinates>18.145769348166713,-2.7281206518332897,0</coordinates>
        </Point>
      </Placemark>
      <Placemark>
        <name>CENTRE DE SANTE KEMPEKA</name>
        <description>
          <![CDATA[
            <b>Type:</b> CENTRE DE SANTE<br/>
            <b>Territory:</b> KUTU<br/>
            <b>Province:</b> MAI NDOMBE<br/>
            <b>Coordinates:</b> -2.732362922246793, 18.14152707775321
          ]]>
        </description>
        <styleUrl>#health</styleUrl>
        <Point>
          <coordinates>18.14152707775321,-2.732362922246793,0</coordinates>
        </Point>
      </Placemark>
      <Placemark>
        <name>CENTRE DE SANTE SEMENDUA</name>
        <description>
          <![CDATA[
            <b>Type:</b> CENTRE DE SANTE<br/>
            <b>Territory:</b> KUTU<br/>
            <b>Province:</b> MAI NDOMBE<br/>
            <b>Coordinates:</b> -2.735151545749647, 18.138738454250355
          ]]>
        </description>
        <styleUrl>#health</styleUrl>
        <Point>
          <coordinates>18.138738454250355,-2.735151545749647,0</coordinates>
        </Point>
      </Placemark>
      <Placemark>
        <name>CENTRE DE SANTE TOLO 2</name>
        <description>
          <![CDATA[
            <b>Type:</b> CENTRE DE SANTE<br/>
            <b>Territory:</b> KUTU<br/>
            <b>Province:</b> MAI NDOMBE<br/>
            <b>Coordinates:</b> -1.95784, 18.17758
          ]]>
        </description>
        <styleUrl>#health</styleUrl>
        <Point>
          <coordinates>18.17758,-1.95784,0</coordinates>
        </Point>
      </Placemark>
      <Placemark>
        <name>SEMENDUA ECOLE PRIMAIRE</name>
        <description>
          <![CDATA[
            <b>Type:</b> ECOLE PRIMAIRE<br/>
            <b>Territory:</b> KUTU<br/>
            <b>Province:</b> MAI NDOMBE<br/>
            <b>Coordinates:</b> -3.22878, 18.12326
          ]]>
        </description>
        <styleUrl>#school</styleUrl>
        <Point>
          <coordinates>18.12326,-3.22878,0</coordinates>
        </Point>
      </Placemark>
      <Placemark>
        <name>TOLO ECOLE PRIMAIRE</name>
        <description>
          <![CDATA[
            <b>Type:</b> ECOLE PRIMAIRE<br/>
            <b>Territory:</b> KUTU<br/>
            <b>Province:</b> MAI NDOMBE<br/>
            <b>Coordinates:</b> -2.96346, 18.58235
          ]]>
        </description>
        <styleUrl>#school</styleUrl>
        <Point>
          <coordinates>18.58235,-2.96346,0</coordinates>
        </Point>
      </Placemark>
      <Placemark>
        <name>INUNU ECOLE PRIMAIRE</name>
        <description>
          <![CDATA[
            <b>Type:</b> ECOLE PRIMAIRE<br/>
            <b>Territory:</b> KUTU<br/>
            <b>Province:</b> MAI NDOMBE<br/>
            <b>Coordinates:</b> 16.20335, 16.3669
          ]]>
        </description>
        <styleUrl>#school</styleUrl>
        <Point>
          <coordinates>16.3669,16.20335,0</coordinates>
        </Point>
      </Placemark>
      <Placemark>
        <name>KEMPILI ECOLE PRIMAIRE</name>
        <description>
          <![CDATA[
            <b>Type:</b> ECOLE PRIMAIRE<br/>
            <b>Territory:</b> KUTU<br/>
            <b>Province:</b> MAI NDOMBE<br/>
            <b>Coordinates:</b> -1.95233, 18.18083
          ]]>
        </description>
        <styleUrl>#school</styleUrl>
        <Point>
          <coordinates>18.18083,-1.95233,0</coordinates>
        </Point>
      </Placemark>
      <Placemark>
        <name>KENZUMA ECOLE PRIMAIRE</name>
        <description>
          <![CDATA[
            <b>Type:</b> ECOLE PRIMAIRE<br/>
            <b>Territory:</b> KUTU<br/>
            <b>Province:</b> MAI NDOMBE<br/>
            <b>Coordinates:</b> -1.95233, 18.18083
          ]]>
        </description>
        <styleUrl>#school</styleUrl>
        <Point>
          <coordinates>18.18083,-1.95233,0</coordinates>
        </Point>
      </Placemark>
      <Placemark>
        <name>KESINA ECOLE PRIMAIRE</name>
        <description>
          <![CDATA[
            <b>Type:</b> ECOLE PRIMAIRE<br/>
            <b>Territory:</b> KUTU<br/>
            <b>Province:</b> MAI NDOMBE<br/>
            <b>Coordinates:</b> -1.95233, 18.18083
          ]]>
        </description>
        <styleUrl>#school</styleUrl>
        <Point>
          <coordinates>18.18083,-1.95233,0</coordinates>
        </Point>
      </Placemark>
      <Placemark>
        <name>KEBOY ECOLE PRIMAIRE</name>
        <description>
          <![CDATA[
            <b>Type:</b> ECOLE PRIMAIRE<br/>
            <b>Territory:</b> KUTU<br/>
            <b>Province:</b> MAI NDOMBE<br/>
            <b>Coordinates:</b> -1.95233, 18.18083
          ]]>
        </description>
        <styleUrl>#school</styleUrl>
        <Point>
          <coordinates>18.18083,-1.95233,0</coordinates>
        </Point>
      </Placemark>
      <Placemark>
        <name>LEBAMA ECOLE PRIMAIRE</name>
        <description>
          <![CDATA[
            <b>Type:</b> ECOLE PRIMAIRE<br/>
            <b>Territory:</b> KUTU<br/>
            <b>Province:</b> MAI NDOMBE<br/>
            <b>Coordinates:</b> -1.95233, 18.18083
          ]]>
        </description>
        <styleUrl>#school</styleUrl>
        <Point>
          <coordinates>18.18083,-1.95233,0</coordinates>
        </Point>
      </Placemark>
      <Placemark>
        <name>KUTU</name>
        <description>
          <![CDATA[
            <b>Type:</b> BATIMENT ADMINISTRATIF<br/>
            <b>Territory:</b> KUTU<br/>
            <b>Province:</b> MAI NDOMBE<br/>
            <b>Coordinates:</b> -2.72884, 18.14505
          ]]>
        </description>
        <styleUrl>#admin</styleUrl>
        <Point>
          <coordinates>18.14505,-2.72884,0</coordinates>
        </Point>
      </Placemark>
    </Folder>

    <Folder>
      <name>MUSHIE</name>
      <description>Sites in MUSHIE territory</description>
      
      <Placemark>
        <name>CENTRE DE SANTE BOBALA</name>
        <description>
          <![CDATA[
            <b>Type:</b> CENTRE DE SANTE<br/>
            <b>Territory:</b> MUSHIE<br/>
            <b>Province:</b> MAI NDOMBE<br/>
            <b>Coordinates:</b> -3.030142000097874, 16.914427999902127
          ]]>
        </description>
        <styleUrl>#health</styleUrl>
        <Point>
          <coordinates>16.914427999902127,-3.030142000097874,0</coordinates>
        </Point>
      </Placemark>
      <Placemark>
        <name>CENTRE DE SANTE IBAA</name>
        <description>
          <![CDATA[
            <b>Type:</b> CENTRE DE SANTE<br/>
            <b>Territory:</b> MUSHIE<br/>
            <b>Province:</b> MAI NDOMBE<br/>
            <b>Coordinates:</b> -3.029061342893906, 16.915508657106095
          ]]>
        </description>
        <styleUrl>#health</styleUrl>
        <Point>
          <coordinates>16.915508657106095,-3.029061342893906,0</coordinates>
        </Point>
      </Placemark>
      <Placemark>
        <name>CENTRE DE SANTE IKILI</name>
        <description>
          <![CDATA[
            <b>Type:</b> CENTRE DE SANTE<br/>
            <b>Territory:</b> MUSHIE<br/>
            <b>Province:</b> MAI NDOMBE<br/>
            <b>Coordinates:</b> -3.01874477406346, 16.925825225936542
          ]]>
        </description>
        <styleUrl>#health</styleUrl>
        <Point>
          <coordinates>16.925825225936542,-3.01874477406346,0</coordinates>
        </Point>
      </Placemark>
      <Placemark>
        <name>CENTRE DE SANTE IZONO</name>
        <description>
          <![CDATA[
            <b>Type:</b> CENTRE DE SANTE<br/>
            <b>Territory:</b> MUSHIE<br/>
            <b>Province:</b> MAI NDOMBE<br/>
            <b>Coordinates:</b> -3.0308450425173374, 16.913724957482664
          ]]>
        </description>
        <styleUrl>#health</styleUrl>
        <Point>
          <coordinates>16.913724957482664,-3.0308450425173374,0</coordinates>
        </Point>
      </Placemark>
      <Placemark>
        <name>CENTRE DE SANTE KENTALE</name>
        <description>
          <![CDATA[
            <b>Type:</b> CENTRE DE SANTE<br/>
            <b>Territory:</b> MUSHIE<br/>
            <b>Province:</b> MAI NDOMBE<br/>
            <b>Coordinates:</b> -3.0279250743944246, 16.916644925605578
          ]]>
        </description>
        <styleUrl>#health</styleUrl>
        <Point>
          <coordinates>16.916644925605578,-3.0279250743944246,0</coordinates>
        </Point>
      </Placemark>
      <Placemark>
        <name>CENTRE DE SANTE LADI</name>
        <description>
          <![CDATA[
            <b>Type:</b> CENTRE DE SANTE<br/>
            <b>Territory:</b> MUSHIE<br/>
            <b>Province:</b> MAI NDOMBE<br/>
            <b>Coordinates:</b> -3.0246651287550006, 16.919904871245002
          ]]>
        </description>
        <styleUrl>#health</styleUrl>
        <Point>
          <coordinates>16.919904871245002,-3.0246651287550006,0</coordinates>
        </Point>
      </Placemark>
      <Placemark>
        <name>CENTRE DE SANTE LOBOBI</name>
        <description>
          <![CDATA[
            <b>Type:</b> CENTRE DE SANTE<br/>
            <b>Territory:</b> MUSHIE<br/>
            <b>Province:</b> MAI NDOMBE<br/>
            <b>Coordinates:</b> -3.0295527330560486, 16.915017266943952
          ]]>
        </description>
        <styleUrl>#health</styleUrl>
        <Point>
          <coordinates>16.915017266943952,-3.0295527330560486,0</coordinates>
        </Point>
      </Placemark>
      <Placemark>
        <name>CENTRE DE SANTE MBAA</name>
        <description>
          <![CDATA[
            <b>Type:</b> CENTRE DE SANTE<br/>
            <b>Territory:</b> MUSHIE<br/>
            <b>Province:</b> MAI NDOMBE<br/>
            <b>Coordinates:</b> -3.016496579115162, 16.92807342088484
          ]]>
        </description>
        <styleUrl>#health</styleUrl>
        <Point>
          <coordinates>16.92807342088484,-3.016496579115162,0</coordinates>
        </Point>
      </Placemark>
      <Placemark>
        <name>CENTRE DE SANTE NGELE NGOOMO</name>
        <description>
          <![CDATA[
            <b>Type:</b> CENTRE DE SANTE<br/>
            <b>Territory:</b> MUSHIE<br/>
            <b>Province:</b> MAI NDOMBE<br/>
            <b>Coordinates:</b> -3.0289227218031347, 16.915647278196868
          ]]>
        </description>
        <styleUrl>#health</styleUrl>
        <Point>
          <coordinates>16.915647278196868,-3.0289227218031347,0</coordinates>
        </Point>
      </Placemark>
      <Placemark>
        <name>BOBOTO ECOLE PRIMAIRE</name>
        <description>
          <![CDATA[
            <b>Type:</b> ECOLE PRIMAIRE<br/>
            <b>Territory:</b> MUSHIE<br/>
            <b>Province:</b> MAI NDOMBE<br/>
            <b>Coordinates:</b> -1.95233, 18.18083
          ]]>
        </description>
        <styleUrl>#school</styleUrl>
        <Point>
          <coordinates>18.18083,-1.95233,0</coordinates>
        </Point>
      </Placemark>
      <Placemark>
        <name>BOLEBE ECOLE PRIMAIRE</name>
        <description>
          <![CDATA[
            <b>Type:</b> ECOLE PRIMAIRE<br/>
            <b>Territory:</b> MUSHIE<br/>
            <b>Province:</b> MAI NDOMBE<br/>
            <b>Coordinates:</b> -1.95233, 18.18083
          ]]>
        </description>
        <styleUrl>#school</styleUrl>
        <Point>
          <coordinates>18.18083,-1.95233,0</coordinates>
        </Point>
      </Placemark>
      <Placemark>
        <name>IZONO ECOLE PRIMAIRE</name>
        <description>
          <![CDATA[
            <b>Type:</b> ECOLE PRIMAIRE<br/>
            <b>Territory:</b> MUSHIE<br/>
            <b>Province:</b> MAI NDOMBE<br/>
            <b>Coordinates:</b> -1.95233, 18.18083
          ]]>
        </description>
        <styleUrl>#school</styleUrl>
        <Point>
          <coordinates>18.18083,-1.95233,0</coordinates>
        </Point>
      </Placemark>
      <Placemark>
        <name>LIBOMA NGUBA ECOLE PRIMAIRE</name>
        <description>
          <![CDATA[
            <b>Type:</b> ECOLE PRIMAIRE<br/>
            <b>Territory:</b> MUSHIE<br/>
            <b>Province:</b> MAI NDOMBE<br/>
            <b>Coordinates:</b> -1.95233, 18.18083
          ]]>
        </description>
        <styleUrl>#school</styleUrl>
        <Point>
          <coordinates>18.18083,-1.95233,0</coordinates>
        </Point>
      </Placemark>
      <Placemark>
        <name>MBALI-IBOMA ECOLE PRIMAIRE</name>
        <description>
          <![CDATA[
            <b>Type:</b> ECOLE PRIMAIRE<br/>
            <b>Territory:</b> MUSHIE<br/>
            <b>Province:</b> MAI NDOMBE<br/>
            <b>Coordinates:</b> -1.95233, 18.18083
          ]]>
        </description>
        <styleUrl>#school</styleUrl>
        <Point>
          <coordinates>18.18083,-1.95233,0</coordinates>
        </Point>
      </Placemark>
      <Placemark>
        <name>MWANZA ECOLE PRIMAIRE</name>
        <description>
          <![CDATA[
            <b>Type:</b> ECOLE PRIMAIRE<br/>
            <b>Territory:</b> MUSHIE<br/>
            <b>Province:</b> MAI NDOMBE<br/>
            <b>Coordinates:</b> -1.95233, 18.18083
          ]]>
        </description>
        <styleUrl>#school</styleUrl>
        <Point>
          <coordinates>18.18083,-1.95233,0</coordinates>
        </Point>
      </Placemark>
      <Placemark>
        <name>NGANTORO ECOLE PRIMAIRE</name>
        <description>
          <![CDATA[
            <b>Type:</b> ECOLE PRIMAIRE<br/>
            <b>Territory:</b> MUSHIE<br/>
            <b>Province:</b> MAI NDOMBE<br/>
            <b>Coordinates:</b> -1.95233, 18.18083
          ]]>
        </description>
        <styleUrl>#school</styleUrl>
        <Point>
          <coordinates>18.18083,-1.95233,0</coordinates>
        </Point>
      </Placemark>
      <Placemark>
        <name>NSEMU ECOLE PRIMAIRE</name>
        <description>
          <![CDATA[
            <b>Type:</b> ECOLE PRIMAIRE<br/>
            <b>Territory:</b> MUSHIE<br/>
            <b>Province:</b> MAI NDOMBE<br/>
            <b>Coordinates:</b> -1.95233, 18.18083
          ]]>
        </description>
        <styleUrl>#school</styleUrl>
        <Point>
          <coordinates>18.18083,-1.95233,0</coordinates>
        </Point>
      </Placemark>
      <Placemark>
        <name>NSENU/C CATHOLIQUE ECOLE PRIMAIRE</name>
        <description>
          <![CDATA[
            <b>Type:</b> ECOLE PRIMAIRE<br/>
            <b>Territory:</b> MUSHIE<br/>
            <b>Province:</b> MAI NDOMBE<br/>
            <b>Coordinates:</b> 16.20335, 16.3669
          ]]>
        </description>
        <styleUrl>#school</styleUrl>
        <Point>
          <coordinates>16.3669,16.20335,0</coordinates>
        </Point>
      </Placemark>
      <Placemark>
        <name>PEMBE ECOLE PRIMAIRE</name>
        <description>
          <![CDATA[
            <b>Type:</b> ECOLE PRIMAIRE<br/>
            <b>Territory:</b> MUSHIE<br/>
            <b>Province:</b> MAI NDOMBE<br/>
            <b>Coordinates:</b> -1.95233, 18.18083
          ]]>
        </description>
        <styleUrl>#school</styleUrl>
        <Point>
          <coordinates>18.18083,-1.95233,0</coordinates>
        </Point>
      </Placemark>
      <Placemark>
        <name>MUSHIE</name>
        <description>
          <![CDATA[
            <b>Type:</b> BATIMENT ADMINISTRATIF<br/>
            <b>Territory:</b> MUSHIE<br/>
            <b>Province:</b> MAI NDOMBE<br/>
            <b>Coordinates:</b> -3.02343, 16.92114
          ]]>
        </description>
        <styleUrl>#admin</styleUrl>
        <Point>
          <coordinates>16.92114,-3.02343,0</coordinates>
        </Point>
      </Placemark>
    </Folder>

    <Folder>
      <name>YUMBI</name>
      <description>Sites in YUMBI territory</description>
      
      <Placemark>
        <name>CENTRE DE SANTE BOLU</name>
        <description>
          <![CDATA[
            <b>Type:</b> CENTRE DE SANTE<br/>
            <b>Territory:</b> YUMBI<br/>
            <b>Province:</b> MAI NDOMBE<br/>
            <b>Coordinates:</b> -1.9093819893599702, 16.55070801064003
          ]]>
        </description>
        <styleUrl>#health</styleUrl>
        <Point>
          <coordinates>16.55070801064003,-1.9093819893599702,0</coordinates>
        </Point>
      </Placemark>
      <Placemark>
        <name>CENTRE DE SANTE MOLENDE</name>
        <description>
          <![CDATA[
            <b>Type:</b> CENTRE DE SANTE<br/>
            <b>Territory:</b> YUMBI<br/>
            <b>Province:</b> MAI NDOMBE<br/>
            <b>Coordinates:</b> -1.9068684760353254, 16.553221523964677
          ]]>
        </description>
        <styleUrl>#health</styleUrl>
        <Point>
          <coordinates>16.553221523964677,-1.9068684760353254,0</coordinates>
        </Point>
      </Placemark>
      <Placemark>
        <name>CENTRE DE SANTE MONGAMA</name>
        <description>
          <![CDATA[
            <b>Type:</b> CENTRE DE SANTE<br/>
            <b>Territory:</b> YUMBI<br/>
            <b>Province:</b> MAI NDOMBE<br/>
            <b>Coordinates:</b> -1.9120305030378786, 16.54805949696212
          ]]>
        </description>
        <styleUrl>#health</styleUrl>
        <Point>
          <coordinates>16.54805949696212,-1.9120305030378786,0</coordinates>
        </Point>
      </Placemark>
      <Placemark>
        <name>CENTRE DE SANTE NKOLO YOKA</name>
        <description>
          <![CDATA[
            <b>Type:</b> CENTRE DE SANTE<br/>
            <b>Territory:</b> YUMBI<br/>
            <b>Province:</b> MAI NDOMBE<br/>
            <b>Coordinates:</b> -1.9018652416618518, 16.55822475833815
          ]]>
        </description>
        <styleUrl>#health</styleUrl>
        <Point>
          <coordinates>16.55822475833815,-1.9018652416618518,0</coordinates>
        </Point>
      </Placemark>
      <Placemark>
        <name>BOLINGO ECOLE PRIMAIRE</name>
        <description>
          <![CDATA[
            <b>Type:</b> ECOLE PRIMAIRE<br/>
            <b>Territory:</b> YUMBI<br/>
            <b>Province:</b> MAI NDOMBE<br/>
            <b>Coordinates:</b> -1.95233, 18.18083
          ]]>
        </description>
        <styleUrl>#school</styleUrl>
        <Point>
          <coordinates>18.18083,-1.95233,0</coordinates>
        </Point>
      </Placemark>
      <Placemark>
        <name>BONGENDE ECOLE PRIMAIRE</name>
        <description>
          <![CDATA[
            <b>Type:</b> ECOLE PRIMAIRE<br/>
            <b>Territory:</b> YUMBI<br/>
            <b>Province:</b> MAI NDOMBE<br/>
            <b>Coordinates:</b> -1.95233, 18.18083
          ]]>
        </description>
        <styleUrl>#school</styleUrl>
        <Point>
          <coordinates>18.18083,-1.95233,0</coordinates>
        </Point>
      </Placemark>
      <Placemark>
        <name>KEBAKONE ECOLE PRIMAIRE</name>
        <description>
          <![CDATA[
            <b>Type:</b> ECOLE PRIMAIRE<br/>
            <b>Territory:</b> YUMBI<br/>
            <b>Province:</b> MAI NDOMBE<br/>
            <b>Coordinates:</b> -1.95233, 18.18083
          ]]>
        </description>
        <styleUrl>#school</styleUrl>
        <Point>
          <coordinates>18.18083,-1.95233,0</coordinates>
        </Point>
      </Placemark>
      <Placemark>
        <name>MABONGO ECOLE PRIMAIRE</name>
        <description>
          <![CDATA[
            <b>Type:</b> ECOLE PRIMAIRE<br/>
            <b>Territory:</b> YUMBI<br/>
            <b>Province:</b> MAI NDOMBE<br/>
            <b>Coordinates:</b> -1.95233, 18.18083
          ]]>
        </description>
        <styleUrl>#school</styleUrl>
        <Point>
          <coordinates>18.18083,-1.95233,0</coordinates>
        </Point>
      </Placemark>
      <Placemark>
        <name>MOBOKO ECOLE PRIMAIRE</name>
        <description>
          <![CDATA[
            <b>Type:</b> ECOLE PRIMAIRE<br/>
            <b>Territory:</b> YUMBI<br/>
            <b>Province:</b> MAI NDOMBE<br/>
            <b>Coordinates:</b> -1.95233, 18.18083
          ]]>
        </description>
        <styleUrl>#school</styleUrl>
        <Point>
          <coordinates>18.18083,-1.95233,0</coordinates>
        </Point>
      </Placemark>
      <Placemark>
        <name>MONGALA ECOLE PRIMAIRE</name>
        <description>
          <![CDATA[
            <b>Type:</b> ECOLE PRIMAIRE<br/>
            <b>Territory:</b> YUMBI<br/>
            <b>Province:</b> MAI NDOMBE<br/>
            <b>Coordinates:</b> -1.95233, 18.18083
          ]]>
        </description>
        <styleUrl>#school</styleUrl>
        <Point>
          <coordinates>18.18083,-1.95233,0</coordinates>
        </Point>
      </Placemark>
      <Placemark>
        <name>MOVULA ECOLE PRIMAIRE</name>
        <description>
          <![CDATA[
            <b>Type:</b> ECOLE PRIMAIRE<br/>
            <b>Territory:</b> YUMBI<br/>
            <b>Province:</b> MAI NDOMBE<br/>
            <b>Coordinates:</b> -1.95233, 18.18083
          ]]>
        </description>
        <styleUrl>#school</styleUrl>
        <Point>
          <coordinates>18.18083,-1.95233,0</coordinates>
        </Point>
      </Placemark>
      <Placemark>
        <name>MUTENDZUONO ECOLE PRIMAIRE</name>
        <description>
          <![CDATA[
            <b>Type:</b> ECOLE PRIMAIRE<br/>
            <b>Territory:</b> YUMBI<br/>
            <b>Province:</b> MAI NDOMBE<br/>
            <b>Coordinates:</b> -1.95233, 18.18083
          ]]>
        </description>
        <styleUrl>#school</styleUrl>
        <Point>
          <coordinates>18.18083,-1.95233,0</coordinates>
        </Point>
      </Placemark>
      <Placemark>
        <name>NGAMPOKO ECOLE PRIMAIRE</name>
        <description>
          <![CDATA[
            <b>Type:</b> ECOLE PRIMAIRE<br/>
            <b>Territory:</b> YUMBI<br/>
            <b>Province:</b> MAI NDOMBE<br/>
            <b>Coordinates:</b> -1.95233, 18.18083
          ]]>
        </description>
        <styleUrl>#school</styleUrl>
        <Point>
          <coordinates>18.18083,-1.95233,0</coordinates>
        </Point>
      </Placemark>
      <Placemark>
        <name>NKOMBE ECOLE PRIMAIRE</name>
        <description>
          <![CDATA[
            <b>Type:</b> ECOLE PRIMAIRE<br/>
            <b>Territory:</b> YUMBI<br/>
            <b>Province:</b> MAI NDOMBE<br/>
            <b>Coordinates:</b> -1.95233, 18.18083
          ]]>
        </description>
        <styleUrl>#school</styleUrl>
        <Point>
          <coordinates>18.18083,-1.95233,0</coordinates>
        </Point>
      </Placemark>
      <Placemark>
        <name>SAINT MICHEL ECOLE PRIMAIRE</name>
        <description>
          <![CDATA[
            <b>Type:</b> ECOLE PRIMAIRE<br/>
            <b>Territory:</b> YUMBI<br/>
            <b>Province:</b> MAI NDOMBE<br/>
            <b>Coordinates:</b> -1.95233, 18.18083
          ]]>
        </description>
        <styleUrl>#school</styleUrl>
        <Point>
          <coordinates>18.18083,-1.95233,0</coordinates>
        </Point>
      </Placemark>
      <Placemark>
        <name>YUMBI</name>
        <description>
          <![CDATA[
            <b>Type:</b> BATIMENT ADMINISTRATIF<br/>
            <b>Territory:</b> YUMBI<br/>
            <b>Province:</b> MAI NDOMBE<br/>
            <b>Coordinates:</b> -1.90578, 16.55431
          ]]>
        </description>
        <styleUrl>#admin</styleUrl>
        <Point>
          <coordinates>16.55431,-1.90578,0</coordinates>
        </Point>
      </Placemark>
    </Folder>

  </Document>
</kml>
